{
  "type": "FeatureCollection",
  "features": [
    {
      "type": "Feature",
      "properties": {
        "norad_id": 43823,
        "name": "GEO-KOMPSAT-2A",
        "group": "weather",
        "lat": 0.024172076657866755,
        "lon": -158.38909325842332,
        "alt_km": 35786.1361873449,
        "timestamp": "2025-12-27T22:26:48.257958+00:00",
        "meta_object_name": "GEO-KOMPSAT-2A",
        "meta_object_id": "2018-100A",
        "meta_epoch": "2025-12-27T06:45:48.663072",
        "meta_mean_motion": 1.00272243,
        "meta_eccentricity": 3.26e-05,
        "meta_inclination": 0.0436,
        "meta_ra_of_asc_node": 168.1676,
        "meta_arg_of_pericenter": 299.8205,
        "meta_mean_anomaly": 217.7331,
        "meta_ephemeris_type": 0,
        "meta_classification_type": "U",
        "meta_norad_cat_id": 43823,
        "meta_element_set_no": 999,
        "meta_rev_at_epoch": 2590,
        "meta_bstar": 0,
        "meta_mean_motion_dot": -3.21e-06,
        "meta_mean_motion_ddot": 0,
        "tle_line1": "1 43823U 18100A   25361.28181323 -.00000321  00000+0  00000+0 0  9990",
        "tle_line2": "2 43823   0.0436 168.1676 0000326 299.8205 217.7331  1.00272243 25907"
      },
      "geometry": {
        "type": "Point",
        "coordinates": [
          -158.38909325842332,
          0.024172076657866755
        ]
      }
    },
    {
      "type": "Feature",
      "properties": {
        "norad_id": 44387,
        "name": "METEOR-M2 2",
        "group": "weather",
        "lat": 53.263035359644206,
        "lon": 173.96902262687723,
        "alt_km": 804.472421111881,
        "timestamp": "2025-12-27T22:26:48.257971+00:00",
        "meta_object_name": "METEOR-M2 2",
        "meta_object_id": "2019-038A",
        "meta_epoch": "2025-12-27T13:25:43.067136",
        "meta_mean_motion": 14.2429876,
        "meta_eccentricity": 0.0001862,
        "meta_inclination": 98.8993,
        "meta_ra_of_asc_node": 341.4707,
        "meta_arg_of_pericenter": 121.2969,
        "meta_mean_anomaly": 238.8392,
        "meta_ephemeris_type": 0,
        "meta_classification_type": "U",
        "meta_norad_cat_id": 44387,
        "meta_element_set_no": 999,
        "meta_rev_at_epoch": 33686,
        "meta_bstar": 0.00019874,
        "meta_mean_motion_dot": 4.13e-06,
        "meta_mean_motion_ddot": 0,
        "tle_line1": "1 44387U 19038A   25361.55952624  .00000413  00000+0  19874-3 0  9991",
        "tle_line2": "2 44387  98.8993 341.4707 0001862 121.2969 238.8392 14.24298760336861"
      },
      "geometry": {
        "type": "Point",
        "coordinates": [
          173.96902262687723,
          53.263035359644206
        ]
      }
    },
    {
      "type": "Feature",
      "properties": {
        "norad_id": 47719,
        "name": "ARKTIKA-M 1",
        "group": "weather",
        "lat": 41.821853494643,
        "lon": -124.92179121970203,
        "alt_km": 20851.98578145886,
        "timestamp": "2025-12-27T22:26:48.257984+00:00",
        "meta_object_name": "ARKTIKA-M 1",
        "meta_object_id": "2021-016A",
        "meta_epoch": "2025-12-27T00:43:39.557280",
        "meta_mean_motion": 2.00630341,
        "meta_eccentricity": 0.72112825,
        "meta_inclination": 63.1774,
        "meta_ra_of_asc_node": 82.0436,
        "meta_arg_of_pericenter": 269.1745,
        "meta_mean_anomaly": 15.5297,
        "meta_ephemeris_type": 0,
        "meta_classification_type": "U",
        "meta_norad_cat_id": 47719,
        "meta_element_set_no": 999,
        "meta_rev_at_epoch": 3533,
        "meta_bstar": 0,
        "meta_mean_motion_dot": -4.6e-07,
        "meta_mean_motion_ddot": 0,
        "tle_line1": "1 47719U 21016A   25361.03031895 -.00000046  00000+0  00000+0 0  9993",
        "tle_line2": "2 47719  63.1774  82.0436 7211282 269.1745  15.5297  2.00630341 35330"
      },
      "geometry": {
        "type": "Point",
        "coordinates": [
          -124.92179121970203,
          41.821853494643
        ]
      }
    },
    {
      "type": "Feature",
      "properties": {
        "norad_id": 49008,
        "name": "FENGYUN 3E",
        "group": "weather",
        "lat": -23.498334449041522,
        "lon": 178.4375909050701,
        "alt_km": 830.4659469668031,
        "timestamp": "2025-12-27T22:26:48.257996+00:00",
        "meta_object_name": "FENGYUN 3E",
        "meta_object_id": "2021-062A",
        "meta_epoch": "2025-12-27T13:02:03.437376",
        "meta_mean_motion": 14.19882659,
        "meta_eccentricity": 0.0001049,
        "meta_inclination": 98.7484,
        "meta_ra_of_asc_node": 1.8888,
        "meta_arg_of_pericenter": 181.5809,
        "meta_mean_anomaly": 178.5364,
        "meta_ephemeris_type": 0,
        "meta_classification_type": "U",
        "meta_norad_cat_id": 49008,
        "meta_element_set_no": 999,
        "meta_rev_at_epoch": 23222,
        "meta_bstar": 9.7846e-05,
        "meta_mean_motion_dot": 1.64e-06,
        "meta_mean_motion_ddot": 0,
        "tle_line1": "1 49008U 21062A   25361.54309534  .00000164  00000+0  97846-4 0  9990",
        "tle_line2": "2 49008  98.7484   1.8888 0001049 181.5809 178.5364 14.19882659232220"
      },
      "geometry": {
        "type": "Point",
        "coordinates": [
          178.4375909050701,
          -23.498334449041522
        ]
      }
    },
    {
      "type": "Feature",
      "properties": {
        "norad_id": 51850,
        "name": "GOES 18",
        "group": "weather",
        "lat": 0.020311019925236436,
        "lon": -63.65235270481071,
        "alt_km": 35783.746555459715,
        "timestamp": "2025-12-27T22:26:48.258008+00:00",
        "meta_object_name": "GOES 18",
        "meta_object_id": "2022-021A",
        "meta_epoch": "2025-12-27T11:12:38.489760",
        "meta_mean_motion": 1.00271693,
        "meta_eccentricity": 5.61e-05,
        "meta_inclination": 0.0418,
        "meta_ra_of_asc_node": 194.3227,
        "meta_arg_of_pericenter": 114.6475,
        "meta_mean_anomaly": 178.3839,
        "meta_ephemeris_type": 0,
        "meta_classification_type": "U",
        "meta_norad_cat_id": 51850,
        "meta_element_set_no": 999,
        "meta_rev_at_epoch": 487,
        "meta_bstar": 0,
        "meta_mean_motion_dot": 1.19e-06,
        "meta_mean_motion_ddot": 0,
        "tle_line1": "1 51850U 22021A   25361.46711215  .00000119  00000+0  00000+0 0  9999",
        "tle_line2": "2 51850   0.0418 194.3227 0000561 114.6475 178.3839  1.00271693  4879"
      },
      "geometry": {
        "type": "Point",
        "coordinates": [
          -63.65235270481071,
          0.020311019925236436
        ]
      }
    },
    {
      "type": "Feature",
      "properties": {
        "norad_id": 54234,
        "name": "NOAA 21 (JPSS-2)",
        "group": "weather",
        "lat": -10.686890618962048,
        "lon": 116.39008209930928,
        "alt_km": 832.2382436910511,
        "timestamp": "2025-12-27T22:26:48.258020+00:00",
        "meta_object_name": "NOAA 21 (JPSS-2)",
        "meta_object_id": "2022-150A",
        "meta_epoch": "2025-12-27T11:24:04.599072",
        "meta_mean_motion": 14.19528306,
        "meta_eccentricity": 0.0001526,
        "meta_inclination": 98.748,
        "meta_ra_of_asc_node": 297.6007,
        "meta_arg_of_pericenter": 6.784,
        "meta_mean_anomaly": 353.3356,
        "meta_ephemeris_type": 0,
        "meta_classification_type": "U",
        "meta_norad_cat_id": 54234,
        "meta_element_set_no": 999,
        "meta_rev_at_epoch": 16218,
        "meta_bstar": 7.634e-05,
        "meta_mean_motion_dot": 1.17e-06,
        "meta_mean_motion_ddot": 0,
        "tle_line1": "1 54234U 22150A   25361.47505323  .00000117  00000+0  76340-4 0  9996",
        "tle_line2": "2 54234  98.7480 297.6007 0001526   6.7840 353.3356 14.19528306162181"
      },
      "geometry": {
        "type": "Point",
        "coordinates": [
          116.39008209930928,
          -10.686890618962048
        ]
      }
    },
    {
      "type": "Feature",
      "properties": {
        "norad_id": 54743,
        "name": "METEOSAT-12 (MTG-I1)",
        "group": "weather",
        "lat": 0.5313430250304855,
        "lon": 73.02699817296175,
        "alt_km": 35793.38718697834,
        "timestamp": "2025-12-27T22:26:48.258035+00:00",
        "meta_object_name": "METEOSAT-12 (MTG-I1)",
        "meta_object_id": "2022-170C",
        "meta_epoch": "2025-12-27T04:26:24.513216",
        "meta_mean_motion": 1.00270944,
        "meta_eccentricity": 0.0001758,
        "meta_inclination": 0.702,
        "meta_ra_of_asc_node": 25.996,
        "meta_arg_of_pericenter": 242.4895,
        "meta_mean_anomaly": 253.7092,
        "meta_ephemeris_type": 0,
        "meta_classification_type": "U",
        "meta_norad_cat_id": 54743,
        "meta_element_set_no": 999,
        "meta_rev_at_epoch": 1125,
        "meta_bstar": 0,
        "meta_mean_motion_dot": 1.4e-07,
        "meta_mean_motion_ddot": 0,
        "tle_line1": "1 54743U 22170C   25361.18500594  .00000014  00000+0  00000+0 0  9997",
        "tle_line2": "2 54743   0.7020  25.9960 0001758 242.4895 253.7092  1.00270944 11254"
      },
      "geometry": {
        "type": "Point",
        "coordinates": [
          73.02699817296175,
          0.5313430250304855
        ]
      }
    }
  ]
}